{"type": "FeatureCollection", "features": [{"type": "Feature", "properties": {"st_nm": "Jammu and Kashmir"}, "geometry": {"type": "Polygon", "coordinates": [[[74.0, 37.0], [77.5, 36.3], [80.0, 34.5], [79.5, 32.4], [76.5, 32.3], [73.9, 33.0], [73.5, 35.0], [74.0, 37.0]]]}}, {"type": "Feature", "properties": {"st_nm": "Ladakh"}, "geometry": {"type": "Polygon", "coordinates": [[[76.0, 35.8], [78.5, 35.5], [80.3, 34.0], [79.5, 32.4], [77.5, 32.2], [75.9, 33.3], [76.0, 35.8]]]}}, {"type": "Feature", "properties": {"st_nm": "Himachal Pradesh"}, "geometry": {"type": "Polygon", "coordinates": [[[76.5, 33.2], [78.8, 32.8], [79.0, 31.8], [77.8, 30.9], [76.0, 30.4], [75.6, 31.2], [75.8, 32.3], [76.5, 33.2]]]}}, {"type": "Feature", "properties": {"st_nm": "Punjab"}, "geometry": {"type": "Polygon", "coordinates": [[[74.5, 32.5], [76.2, 32.0], [76.5, 30.9], [75.5, 29.7], [74.0, 30.0], [73.9, 31.2], [74.5, 32.5]]]}}, {"type": "Feature", "properties": {"st_nm": "Chandigarh"}, "geometry": {"type": "Polygon", "coordinates": [[[76.72, 30.78], [76.83, 30.78], [76.83, 30.68], [76.72, 30.68], [76.72, 30.78]]]}}, {"type": "Feature", "properties": {"st_nm": "Haryana"}, "geometry": {"type": "Polygon", "coordinates": [[[75.6, 30.9], [77.0, 30.4], [77.5, 28.4], [76.8, 27.7], [75.0, 28.4], [74.5, 29.5], [75.6, 30.9]]]}}, {"type": "Feature", "properties": {"st_nm": "Delhi"}, "geometry": {"type": "Polygon", "coordinates": [[[76.85, 28.88], [77.35, 28.88], [77.35, 28.4], [76.85, 28.4], [76.85, 28.88]]]}}, {"type": "Feature", "properties": {"st_nm": "Uttarakhand"}, "geometry": {"type": "Polygon", "coordinates": [[[78.0, 31.4], [80.1, 30.9], [81.0, 30.0], [80.1, 28.9], [78.5, 28.7], [77.8, 29.6], [78.0, 31.4]]]}}, {"type": "Feature", "properties": {"st_nm": "Rajasthan"}, "geometry": {"type": "Polygon", "coordinates": [[[70.0, 29.9], [75.3, 30.2], [77.0, 28.5], [78.3, 26.9], [76.5, 24.0], [74.5, 23.1], [71.0, 24.2], [69.5, 26.5], [70.0, 29.9]]]}}, {"type": "Feature", "properties": {"st_nm": "Uttar Pradesh"}, "geometry": {"type": "Polygon", "coordinates": [[[78.0, 30.4], [80.1, 28.9], [83.0, 27.5], [84.6, 26.4], [83.5, 24.5], [81.0, 24.0], [79.0, 24.5], [77.5, 26.5], [78.0, 30.4]]]}}, {"type": "Feature", "properties": {"st_nm": "Bihar"}, "geometry": {"type": "Polygon", "coordinates": [[[83.5, 27.4], [87.5, 26.6], [88.1, 25.3], [87.0, 24.4], [84.0, 24.3], [83.3, 25.7], [83.5, 27.4]]]}}, {"type": "Feature", "properties": {"st_nm": "Sikkim"}, "geometry": {"type": "Polygon", "coordinates": [[[88.0, 27.9], [88.9, 27.9], [88.8, 27.1], [88.1, 27.1], [88.0, 27.9]]]}}, {"type": "Feature", "properties": {"st_nm": "West Bengal"}, "geometry": {"type": "Polygon", "coordinates": [[[88.0, 27.2], [89.0, 26.4], [89.9, 25.2], [88.5, 24.0], [87.9, 24.5], [86.5, 24.0], [85.8, 23.5], [86.4, 22.0], [88.0, 21.5], [89.0, 22.0], [88.9, 22.9], [88.0, 27.2]]]}}, {"type": "Feature", "properties": {"st_nm": "Jharkhand"}, "geometry": {"type": "Polygon", "coordinates": [[[84.0, 24.9], [87.0, 24.4], [87.9, 23.6], [86.6, 22.0], [84.0, 21.9], [83.3, 23.5], [84.0, 24.9]]]}}, {"type": "Feature", "properties": {"st_nm": "Odisha"}, "geometry": {"type": "Polygon", "coordinates": [[[84.0, 21.9], [86.6, 22.0], [87.5, 21.5], [86.7, 19.3], [85.1, 18.3], [82.5, 17.8], [81.4, 19.2], [82.0, 21.0], [84.0, 21.9]]]}}, {"type": "Feature", "properties": {"st_nm": "Chhattisgarh"}, "geometry": {"type": "Polygon", "coordinates": [[[81.5, 24.1], [83.5, 23.9], [84.4, 22.0], [83.3, 20.0], [82.0, 18.0], [80.5, 18.9], [80.2, 20.5], [80.7, 22.6], [81.5, 24.1]]]}}, {"type": "Feature", "properties": {"st_nm": "Madhya Pradesh"}, "geometry": {"type": "Polygon", "coordinates": [[[76.0, 26.9], [79.0, 26.5], [81.0, 24.5], [82.8, 23.0], [81.5, 21.4], [78.5, 21.1], [75.5, 21.8], [74.0, 23.0], [74.5, 25.0], [76.0, 26.9]]]}}, {"type": "Feature", "properties": {"st_nm": "Gujarat"}, "geometry": {"type": "Polygon", "coordinates": [[[70.2, 24.7], [72.0, 24.3], [74.5, 23.0], [74.0, 21.5], [72.9, 20.6], [72.0, 20.9], [70.5, 20.9], [69.1, 22.4], [68.2, 23.7], [69.5, 24.3], [70.2, 24.7]]]}}, {"type": "Feature", "properties": {"st_nm": "Maharashtra"}, "geometry": {"type": "Polygon", "coordinates": [[[73.3, 22.0], [76.0, 21.6], [79.0, 21.5], [80.9, 20.2], [79.5, 18.5], [78.0, 17.0], [76.0, 15.7], [73.8, 16.0], [72.7, 19.0], [72.6, 20.4], [73.3, 22.0]]]}}, {"type": "Feature", "properties": {"st_nm": "Goa"}, "geometry": {"type": "Polygon", "coordinates": [[[73.7, 15.8], [74.3, 15.7], [74.2, 14.9], [73.7, 14.9], [73.7, 15.8]]]}}, {"type": "Feature", "properties": {"st_nm": "Karnataka"}, "geometry": {"type": "Polygon", "coordinates": [[[74.1, 15.9], [76.9, 18.5], [77.6, 16.7], [78.6, 15.2], [78.0, 13.0], [77.0, 12.0], [75.4, 11.6], [74.0, 12.8], [74.1, 14.9], [74.1, 15.9]]]}}, {"type": "Feature", "properties": {"st_nm": "Andhra Pradesh"}, "geometry": {"type": "Polygon", "coordinates": [[[77.5, 19.9], [80.0, 19.0], [83.9, 18.3], [84.8, 17.0], [83.0, 14.0], [80.3, 13.5], [78.5, 12.6], [77.3, 13.6], [77.0, 15.8], [77.5, 19.9]]]}}, {"type": "Feature", "properties": {"st_nm": "Telangana"}, "geometry": {"type": "Polygon", "coordinates": [[[77.3, 19.9], [79.0, 19.3], [80.9, 19.0], [81.3, 18.1], [80.0, 17.0], [78.5, 15.9], [77.3, 17.0], [77.2, 18.5], [77.3, 19.9]]]}}, {"type": "Feature", "properties": {"st_nm": "Tamil Nadu"}, "geometry": {"type": "Polygon", "coordinates": [[[77.0, 13.6], [79.4, 13.4], [80.3, 12.9], [79.8, 10.3], [79.3, 9.3], [78.1, 8.1], [77.0, 8.2], [76.9, 10.0], [76.6, 11.3], [77.0, 13.6]]]}}, {"type": "Feature", "properties": {"st_nm": "Kerala"}, "geometry": {"type": "Polygon", "coordinates": [[[75.3, 12.8], [76.9, 11.8], [76.6, 11.3], [77.0, 10.0], [77.3, 9.6], [77.4, 8.9], [76.6, 8.1], [75.8, 9.1], [74.9, 10.6], [75.3, 12.8]]]}}, {"type": "Feature", "properties": {"st_nm": "Assam"}, "geometry": {"type": "Polygon", "coordinates": [[[89.7, 26.8], [91.5, 26.9], [94.0, 27.9], [95.5, 27.8], [96.0, 27.0], [95.2, 26.6], [93.0, 26.7], [91.0, 25.2], [90.0, 24.1], [89.7, 26.8]]]}}, {"type": "Feature", "properties": {"st_nm": "Meghalaya"}, "geometry": {"type": "Polygon", "coordinates": [[[89.8, 25.9], [91.5, 26.1], [92.8, 25.4], [91.0, 25.0], [89.8, 25.9]]]}}, {"type": "Feature", "properties": {"st_nm": "Tripura"}, "geometry": {"type": "Polygon", "coordinates": [[[91.5, 24.5], [92.3, 24.2], [92.0, 23.0], [91.1, 23.2], [91.5, 24.5]]]}}, {"type": "Feature", "properties": {"st_nm": "Mizoram"}, "geometry": {"type": "Polygon", "coordinates": [[[92.2, 24.5], [93.4, 24.0], [93.3, 22.1], [92.6, 21.9], [92.2, 23.0], [92.2, 24.5]]]}}, {"type": "Feature", "properties": {"st_nm": "Manipur"}, "geometry": {"type": "Polygon", "coordinates": [[[93.3, 25.7], [94.8, 24.7], [94.2, 23.8], [93.0, 24.2], [93.3, 25.7]]]}}, {"type": "Feature", "properties": {"st_nm": "Nagaland"}, "geometry": {"type": "Polygon", "coordinates": [[[93.3, 27.0], [95.2, 26.7], [94.8, 25.2], [93.7, 25.6], [93.3, 27.0]]]}}, {"type": "Feature", "properties": {"st_nm": "Arunachal Pradesh"}, "geometry": {"type": "Polygon", "coordinates": [[[91.6, 27.9], [93.5, 29.4], [96.0, 29.0], [97.4, 27.8], [96.5, 27.0], [94.0, 27.9], [92.0, 26.9], [91.6, 27.9]]]}}, {"type": "Feature", "properties": {"st_nm": "Andaman and Nicobar Islands"}, "geometry": {"type": "Polygon", "coordinates": [[[92.7, 13.7], [93.0, 12.0], [93.0, 10.0], [92.9, 8.0], [93.9, 7.0], [93.5, 6.7], [92.7, 7.5], [92.2, 10.5], [92.7, 13.7]]]}}, {"type": "Feature", "properties": {"st_nm": "Lakshadweep"}, "geometry": {"type": "Polygon", "coordinates": [[[71.8, 12.3], [73.7, 12.0], [73.7, 10.0], [72.6, 8.2], [71.7, 9.5], [71.8, 12.3]]]}}, {"type": "Feature", "properties": {"st_nm": "Puducherry"}, "geometry": {"type": "Polygon", "coordinates": [[[79.75, 12.05], [79.9, 12.05], [79.9, 11.85], [79.75, 11.85], [79.75, 12.05]]]}}, {"type": "Feature", "properties": {"st_nm": "Dadra and Nagar Haveli and Daman and Diu"}, "geometry": {"type": "Polygon", "coordinates": [[[72.75, 20.45], [73.05, 20.45], [73.05, 20.1], [72.75, 20.1], [72.75, 20.45]]]}}]}